NORAD_CAT_ID,OBJECT_NAME,OBJECT_TYPE,EPOCH,MEAN_MOTION,ECCENTRICITY,INCLINATION,RA_OF_ASC_NODE,ARG_OF_PERICENTER,MEAN_ANOMALY,BSTAR,MEAN_MOTION_DOT,MEAN_MOTION_DDOT,TLE_LINE0,TLE_LINE1,TLE_LINE2,SEMIMAJOR_AXIS,PERIOD,APOGEE,PERIGEE,DECAYED
49152.0,STARLINK-3081,PAYLOAD,2023-06-10 14:46:39,14.98336648,0.0003358,69.9993,263.5438,268.3443,91.7332,6.43e-05,6.74e-06,0.0,0 STARLINK-3081,1 49152U 21082Y   23161.61573219  .00000674  00000-0  64300-4 0  9995,2 49152  69.9993 263.5438 0003358 268.3443  91.7332 14.98336648 97832,6950.172,96.107,574.371,569.703,0.0
49152.0,STARLINK-3081,PAYLOAD,2023-06-11 13:12:32,14.98329488,0.0003293,69.9994,261.1873,268.6149,91.4632,9.4907e-05,1.04e-05,0.0,0 STARLINK-3081,1 49152U 21082Y   23162.55037543  .00001040  00000-0  94907-4 0  9998,2 49152  69.9994 261.1873 0003293 268.6149  91.4632 14.98329488 97973,6950.194,96.107,574.348,569.771,0.0
49152.0,STARLINK-3081,PAYLOAD,2023-06-11 18:00:56,14.98333021,0.0003311,69.9995,260.6822,268.5374,91.5406,0.00012993,1.458e-05,0.0,0 STARLINK-3081,1 49152U 21082Y   23162.75065224  .00001458  00000-0  12993-3 0  9994,2 49152  69.9995 260.6822 0003311 268.5374  91.5406 14.98333021 98005,6950.184,96.107,574.35,569.747,0.0
49152.0,STARLINK-3081,PAYLOAD,2023-06-12 13:14:32,14.98339288,0.0003329,69.999,258.6626,267.7136,92.3642,6.5138e-05,6.84e-06,0.0,0 STARLINK-3081,1 49152U 21082Y   23163.55176750  .00000684  00000-0  65138-4 0  9990,2 49152  69.9990 258.6626 0003329 267.7136  92.3642 14.98339288 98120,6950.164,96.106,574.343,569.715,0.0
49152.0,STARLINK-3081,PAYLOAD,2023-06-13 05:15:54,14.98336491,0.0002655,69.9995,256.9795,273.2847,86.8008,-0.00016045,-2.007e-05,0.0,0 STARLINK-3081,1 49152U 21082Y   23164.21937595 -.00002007  00000-0 -16045-3 0  9991,2 49152  69.9995 256.9795 0002655 273.2847  86.8008 14.98336491 98234,6950.173,96.107,573.883,570.193,0.0
49152.0,STARLINK-3081,PAYLOAD,2023-06-13 06:52:02,14.98334114,0.0002521,70.0006,256.8131,270.5867,89.5003,-0.00017119,-2.135e-05,0.0,0 STARLINK-3081,1 49152U 21082Y   23164.28613708 -.00002135  00000-0 -17119-3 0  9990,2 49152  70.0006 256.8131 0002521 270.5867  89.5003 14.98334114 98232,6950.18,96.107,573.797,570.293,0.0
49152.0,STARLINK-3081,PAYLOAD,2023-06-13 22:53:21,14.98363604,0.0003192,70.0007,255.1296,269.8196,90.2597,-0.0006952,-8.385e-05,0.0,0 STARLINK-3081,1 49152U 21082Y   23164.95372676 -.00008385  00000-0 -69520-3 0  9996,2 49152  70.0007 255.1296 0003192 269.8196  90.2597 14.98363604 98343,6950.089,96.105,574.172,569.736,0.0
49152.0,STARLINK-3081,PAYLOAD,2023-06-14 05:17:54,14.98330131,0.0003358,69.9992,254.4548,268.8289,91.2485,3.1487e-05,2.83e-06,0.0,0 STARLINK-3081,1 49152U 21082Y   23165.22077303  .00000283  00000-0  31487-4 0  9995,2 49152  69.9992 254.4548 0003358 268.8289  91.2485 14.98330131 98381,6950.192,96.107,574.391,569.724,0.0
49152.0,STARLINK-3081,PAYLOAD,2023-06-15 10:08:20,14.9832442,0.0003283,69.9992,251.425,268.1842,91.8941,4.1163e-05,3.98e-06,0.0,0 STARLINK-3081,1 49152U 21082Y   23166.42245619  .00000398  00000-0  41163-4 0  9994,2 49152  69.9992 251.4250 0003283 268.1842  91.8941 14.98324420 98560,6950.21,96.107,574.357,569.793,0.0
49152.0,STARLINK-3081,PAYLOAD,2023-06-15 13:20:36,14.98326359,0.0003257,69.9992,251.0883,268.1312,91.9474,6.1771e-05,6.44e-06,0.0,0 STARLINK-3081,1 49152U 21082Y   23166.55597492  .00000644  00000-0  61771-4 0  9998,2 49152  69.9992 251.0883 0003257 268.1312  91.9474 14.98326359 98577,6950.204,96.107,574.333,569.805,0.0
49152.0,STARLINK-3081,PAYLOAD,2023-06-15 18:09:00,14.9832948,0.0003257,69.9992,250.5836,266.9335,93.1452,8.51e-05,9.22e-06,0.0,0 STARLINK-3081,1 49152U 21082Y   23166.75625261  .00000922  00000-0  85100-4 0  9997,2 49152  69.9992 250.5836 0003257 266.9335  93.1452 14.98329480 98602,6950.194,96.107,574.323,569.796,0.0
49152.0,STARLINK-3081,PAYLOAD,2023-06-15 22:57:24,14.98331051,0.0003295,69.9993,250.0774,270.8151,89.263,5.7418e-05,5.92e-06,0.0,0 STARLINK-3081,1 49152U 21082Y   23166.95653253  .00000592  00000-0  57418-4 0  9995,2 49152  69.9993 250.0774 0003295 270.8151  89.2630 14.98331051 98646,6950.19,96.107,574.345,569.765,0.0
49152.0,STARLINK-3081,PAYLOAD,2023-06-16 11:46:28,14.98341159,0.0003407,69.9991,248.7322,269.0778,90.9991,0.00013643,1.536e-05,0.0,0 STARLINK-3081,1 49152U 21082Y   23167.49060239  .00001536  00000-0  13643-3 0  9991,2 49152  69.9991 248.7322 0003407 269.0778  90.9991 14.98341159 98725,6950.158,96.106,574.391,569.655,0.0
49152.0,STARLINK-3081,PAYLOAD,2023-06-16 18:10:59,14.9834521,0.0003487,69.999,248.0581,269.8485,90.2275,0.00015066,1.706e-05,0.0,0 STARLINK-3081,1 49152U 21082Y   23167.75763749  .00001706  00000-0  15066-3 0  9996,2 49152  69.9990 248.0581 0003487 269.8485  90.2275 14.98345210 98758,6950.146,96.106,574.434,569.587,0.0
49152.0,STARLINK-3081,PAYLOAD,2023-06-16 22:59:26,14.98314272,0.0003541,69.9986,247.5525,267.8412,92.2342,-8.8401e-05,-1.147e-05,0.0,0 STARLINK-3081,1 49152U 21082Y   23167.95794128 -.00001147  00000-0 -88401-4 0  9998,2 49152  69.9986 247.5525 0003541 267.8412  92.2342 14.98314272 98799,6950.242,96.108,574.568,569.645,0.0
49152.0,STARLINK-3081,PAYLOAD,2023-06-17 11:48:30,14.98323553,0.0003547,69.9983,246.206,267.9849,92.0904,-4.4542e-05,-6.24e-06,0.0,0 STARLINK-3081,1 49152U 21082Y   23168.49201789 -.00000624  00000-0 -44542-4 0  9991,2 49152  69.9983 246.2060 0003547 267.9849  92.0904 14.98323553 98869,6950.213,96.107,574.543,569.613,0.0
49152.0,STARLINK-3081,PAYLOAD,2023-06-17 16:36:54,14.98325904,0.0003549,69.9986,245.7013,268.2552,91.82,-1.0815e-05,-2.22e-06,0.0,0 STARLINK-3081,1 49152U 21082Y   23168.69229626 -.00000222  00000-0 -10815-4 0  9993,2 49152  69.9986 245.7013 0003549 268.2552  91.8200 14.98325904 98904,6950.206,96.107,574.537,569.604,0.0
49152.0,STARLINK-3081,PAYLOAD,2023-06-18 11:50:30,14.98338101,0.0003555,69.9985,243.6813,268.135,91.9401,3.701e-06,-4.9e-07,0.0,0 STARLINK-3081,1 49152U 21082Y   23169.49340867 -.00000049  00000-0  37010-5 0  9996,2 49152  69.9985 243.6813 0003555 268.1350  91.9401 14.98338101 99010,6950.168,96.106,574.504,569.562,0.0
49152.0,STARLINK-3081,PAYLOAD,2023-06-18 15:02:46,14.98339071,0.000355,69.9985,243.3447,268.2378,91.8374,2.1452e-05,1.63e-06,0.0,0 STARLINK-3081,1 49152U 21082Y   23169.62692747  .00000163  00000-0  21452-4 0  9996,2 49152  69.9985 243.3447 0003550 268.2378  91.8374 14.98339071 99044,6950.165,96.106,574.497,569.563,0.0
49152.0,STARLINK-3081,PAYLOAD,2023-06-19 05:27:59,14.98324114,0.0003554,69.9985,241.8298,266.3382,93.7371,0.000225,2.592e-05,0.0,0 STARLINK-3081,1 49152U 21082Y   23170.22777260  .00002592  00000-0  22500-3 0  9990,2 49152  69.9985 241.8298 0003554 266.3382  93.7371 14.98324114 99139,6950.211,96.107,574.546,569.606,0.0
49152.0,STARLINK-3081,PAYLOAD,2023-06-19 08:40:15,14.98327443,0.0003537,69.9986,241.4931,266.2708,93.8046,0.00020185,2.316e-05,0.0,0 STARLINK-3081,1 49152U 21082Y   23170.36129165  .00002316  00000-0  20185-3 0  9991,2 49152  69.9986 241.4931 0003537 266.2708  93.8046 14.98327443 99141,6950.201,96.107,574.524,569.608,0.0
49152.0,STARLINK-3081,PAYLOAD,2023-06-20 03:53:52,14.98330704,0.0003398,69.999,239.4733,268.2441,91.8329,9.7861e-05,1.075e-05,0.0,0 STARLINK-3081,1 49152U 21082Y   23171.16241238  .00001075  00000-0  97861-4 0  9993,2 49152  69.9990 239.4733 0003398 268.2441  91.8329 14.98330704 99263,6950.191,96.107,574.417,569.694,0.0
49152.0,STARLINK-3081,PAYLOAD,2023-06-21 11:56:33,14.98333058,0.0003386,69.999,236.107,266.0987,93.9785,2.8447e-05,2.46e-06,0.0,0 STARLINK-3081,1 49152U 21082Y   23172.49760958  .00000246  00000-0  28447-4 0  9998,2 49152  69.9990 236.1070 0003386 266.0987  93.9785 14.98333058 99476,6950.183,96.107,574.402,569.695,0.0
49152.0,STARLINK-3081,PAYLOAD,2023-06-21 13:32:41,14.98333673,0.0003392,69.999,235.9387,266.4338,93.6433,3.3131e-05,3.02e-06,0.0,0 STARLINK-3081,1 49152U 21082Y   23172.56436889  .00000302  00000-0  33131-4 0  9998,2 49152  69.9990 235.9387 0003392 266.4338  93.6433 14.98333673 99475,6950.182,96.107,574.404,569.689,0.0
49152.0,STARLINK-3081,PAYLOAD,2023-06-22 10:22:26,14.98327387,0.000356,69.999,233.7515,270.8162,89.2589,2.314e-05,1.83e-06,0.0,0 STARLINK-3081,1 49152U 21082Y   23173.43225308  .00000183  00000-0  23140-4 0  9993,2 49152  69.9990 233.7515 0003560 270.8162  89.2589 14.98327387 99619,6950.201,96.107,574.54,569.592,0.0
49152.0,STARLINK-3081,PAYLOAD,2023-06-23 10:24:26,14.98336096,0.0003654,69.9987,231.2254,269.6135,90.4605,8.2631e-05,8.93e-06,0.0,0 STARLINK-3081,1 49152U 21082Y   23174.43364548  .00000893  00000-0  82631-4 0  9992,2 49152  69.9987 231.2254 0003654 269.6135  90.4605 14.98336096 99764,6950.174,96.107,574.579,569.499,0.0
49152.0,STARLINK-3081,PAYLOAD,2023-06-24 08:50:20,14.98328092,0.0003606,69.9989,228.8686,269.2192,90.8554,7.4816e-05,8e-06,0.0,0 STARLINK-3081,1 49152U 21082Y   23175.36829061  .00000800  00000-0  74816-4 0  9995,2 49152  69.9989 228.8686 0003606 269.2192  90.8554 14.98328092 99903,6950.199,96.107,574.57,569.558,0.0
49152.0,STARLINK-3081,PAYLOAD,2023-06-25 10:28:28,14.98361281,0.0003206,69.999,226.1761,269.4984,90.5807,-0.00044112,-5.357e-05,0.0,0 STARLINK-3081,1 49152U 21082Y   23176.43643989 -.00005357  00000-0 -44112-3 0  9996,2 49152  69.9990 226.1761 0003206 269.4984  90.5807 14.98361281100062,6950.096,96.105,574.189,569.733,0.0
49152.0,STARLINK-3081,PAYLOAD,2023-06-25 20:05:17,14.98330903,0.00035,69.9992,225.1662,267.4439,92.632,1.3183e-05,6.4e-07,0.0,0 STARLINK-3081,1 49152U 21082Y   23176.83700831  .00000064  00000-0  13183-4 0  9993,2 49152  69.9992 225.1662 0003500 267.4439  92.6320 14.98330903100120,6950.19,96.107,574.488,569.623,0.0
49152.0,STARLINK-3081,PAYLOAD,2023-06-26 20:07:17,14.98347981,0.0003593,69.999,222.6411,270.4204,89.6543,-0.00029367,-3.597e-05,0.0,0 STARLINK-3081,1 49152U 21082Y   23177.83840232 -.00003597  00000-0 -29367-3 0  9990,2 49152  69.9990 222.6411 0003593 270.4204  89.6543 14.98347981100271,6950.137,96.106,574.499,569.505,0.0
